BEIDOU-3 G4             
1 56564U 23066A   26155.30765920 -.00000270  00000+0  00000+0 0  9992
2 56564   0.5024 328.1725 0004394 167.8120   7.5566  1.00268822 11260
ARABSAT-7B (BADR-8)     
1 56757U 23075A   26154.99985428  .00000157  00000+0  00000+0 0  9990
2 56757   0.0770  28.4697 0004957 355.5113 254.4306  1.00272852 10989
NVS-01 (IRNSS-1J)       
1 56759U 23076A   26155.30557919 -.00000323  00000+0  00000+0 0  9995
2 56759   2.1970 244.9309 0002881  43.8656 203.5665  1.00272155 10983
NUSANTARA TIGA (SATRIA) 
1 57045U 23086A   26154.73843727 -.00000223  00000+0  00000+0 0  9995
2 57045   0.0380 341.7960 0003639   3.8036 318.4303  1.00269891  9620
H2SAT (HEINRICH HERTZ)  
1 57213U 23093A   26155.13748118  .00000014  00000+0  00000+0 0  9990
2 57213   0.0448 123.4904 0000974 332.0680 207.2004  1.00272490 10787
SYRACUSE 4B             
1 57214U 23093B   26155.20729428  .00000000  00000+0  00000+0 0  9997
2 57214   0.0175 355.1956 0000340 137.9621 187.6872  1.00271802  6831
JUPITER 3 (ECHOSTAR 24) 
1 57479U 23108A   26154.56448929  .00000000  00000+0  00000+0 0  9999
2 57479   0.0193 329.9698 0001234 102.0529 287.9908  1.00270212 10506
GALAXY 37 (G-37)        
1 57493U 23112A   26155.24280872  .00000060  00000+0  00000+0 0  9993
2 57493   0.0153 312.9979 0002257 123.4457 136.6679  1.00273075 10410
LUDI TANCE-4 01A        
1 57624U 23120A   26153.73881874 -.00000162  00000+0  00000+0 0  9993
2 57624  15.1104 194.3254 0000762  72.9345 339.6342  1.00272712 10408
TJS-10                  
1 58204U 23169A   26154.72794654 -.00000238  00000+0  00000+0 0  9994
2 58204   2.5097  80.6492 0003775  96.3835  69.6584  1.00269817  9404
ZHONGXING-6E            
1 58253U 23172A   26155.30280584  .00000000  00000+0  00000+0 0  9995
2 58253   0.0156 335.1203 0002640 103.3489  38.8351  1.00269255  9539
YAOGAN-41               
1 58582U 23197A   26155.30427919 -.00000351  00000+0  00000+0 0  9992
2 58582   3.1526 312.9327 0014055 188.5145 343.9327  1.00265957  9196
OVZON-3                 
1 58698U 24003A   26155.14918124  .00000063  00000+0  00000+0 0  9991
2 58698   0.0059 285.8696 0000338 183.0725 257.0695  1.00273961  7310
INSAT-3DS               
1 58990U 24033A   26155.08219668 -.00000144  00000+0  00000+0 0  9990
2 58990   0.0157 244.9243 0001651 180.6260 298.6386  1.00271078 46930
MERAH PUTIH 2           
1 58995U 24035A   26155.00878172 -.00000346  00000+0  00000+0 0  9994
2 58995   0.0158 278.1001 0001592 142.8205 307.6595  1.00271487  8452
TJS-11                  
1 59020U 24037A   26147.82614384 -.00000366  00000+0  00000+0 0  9992
2 59020   4.2247 326.8251 0009231  68.5888 267.4904  1.00203688  8370
HULIANWAN GAOGUI-01 (H*)
1 59069U 24040A   26155.00141428  .00000168  00000+0  00000+0 0  9991
2 59069   0.0663 329.3867 0003260  74.4115 242.7853  1.00272355  7190
EUTELSAT 36D            
1 59346U 24059A   26155.07309663  .00000168  00000+0  00000+0 0  9993
2 59346   0.0171  21.7789 0000635 112.2324 180.7073  1.00274452  8011
PAKSAT-MM1              
1 59915U 24104A   26154.64578588  .00000165  00000+0  00000+0 0  9999
2 59915   0.0154  42.0049 0002046  27.2826  93.4750  1.00274914  7394
ASTRA 1P (SES-24)       
1 60086U 24115A   26154.85585910  .00000132  00000+0  00000+0 0  9996
2 60086   0.0653  18.4107 0000831   3.6201 197.5954  1.00270392  7068
GOES 19                 
1 60133U 24119A   26155.17683514 -.00000236  00000+0  00000+0 0  9994
2 60133   0.0458 135.8547 0000675 354.6462 110.6014  1.00271705  6836
ZHONGXING-3A            
1 60179U 24122A   26153.65526759 -.00000300  00000+0  00000+0 0  9998
2 60179   0.0473 109.1771 0001879 345.7961 133.5861  1.00266908  7168
TURKSAT 6A              
1 60233U 24127A   26155.07430998  .00000158  00000+0  00000+0 0  9991
2 60233   0.0475 169.1431 0001682 309.1627 202.9765  1.00270917  6882
HULIANWAN GAOGUI-02 (H*)
1 60327U 24135A   26153.74156412 -.00000161  00000+0  00000+0 0  9997
2 60327   0.0426 356.0531 0007806  12.4792 302.8319  1.00269974  7350
ZHONGXING-4A            
1 60606U 24151A   26155.30332586 -.00000350  00000+0  00000+0 0  9997
2 60606   1.3479 270.9936 0000593 183.0700  26.1187  1.00272805  6620
HULIANWAN GAOGUI-03 (H*)
1 61503U 24181A   26155.19332042 -.00000229  00000+0  00000+0 0  9996
2 61503   0.0445 359.6640 0001411 102.7192 142.7241  1.00271588  6696
DSN-3 (KIRAMEKI-3)      
1 61733U 24198A   26155.30843920 -.00000238  00000+0  00000+0 0  9994
2 61733   0.0143  20.8388 0000739 107.1721  19.8612  1.00271870  5791
KOREASAT 6A             
1 61910U 24206A   26155.30289251 -.00000350  00000+0  00000+0 0  9997
2 61910   0.0156  79.4031 0001076   7.9957  30.3954  1.00269429  5716
OPTUS-X (ADS-01)        
1 62006U 24212A   26155.16824799 -.00000131  00000+0  00000+0 0  9994
2 62006   0.0179 290.7532 0001817 182.5229 356.3207  1.00274054  5630
GSAT-N2 (GSAT-20)       
1 62028U 24214A   26155.15082792 -.00000009  00000+0  00000+0 0  9992
2 62028   0.0214 233.6910 0002198 204.1002 297.1527  1.00275053  5764
SXM-9                   
1 62259U 24234A   26155.17683514 -.00000193  00000+0  00000+0 0  9995
2 62259   0.0136 331.7510 0004571 344.2523 275.1320  1.00270548  5446
