OBJECT_NAME,OBJECT_ID,EPOCH,MEAN_MOTION,ECCENTRICITY,INCLINATION,RA_OF_ASC_NODE,ARG_OF_PERICENTER,MEAN_ANOMALY,EPHEMERIS_TYPE,CLASSIFICATION_TYPE,NORAD_CAT_ID,ELEMENT_SET_NO,REV_AT_EPOCH,BSTAR,MEAN_MOTION_DOT,MEAN_MOTION_DDOT
BEIDOU-3 G4,2023-066A,2026-06-04T07:23:01.754880,1.00268822,.00043943,0.5024,328.1725,167.8120,7.5566,0,U,56564,999,1126,0,-.27E-5,0
ARABSAT-7B (BADR-8),2023-075A,2026-06-03T23:59:47.409792,1.00272852,.00049571,0.0770,28.4697,355.5113,254.4306,0,U,56757,999,1098,0,.157E-5,0
NVS-01 (IRNSS-1J),2023-076A,2026-06-04T07:20:02.042016,1.00272155,.00028818,2.1970,244.9309,43.8656,203.5665,0,U,56759,999,1098,0,-.323E-5,0
NUSANTARA TIGA (SATRIA),2023-086A,2026-06-03T17:43:20.980128,1.00269891,.00036398,0.0380,341.7960,3.8036,318.4303,0,U,57045,999,962,0,-.223E-5,0
H2SAT (HEINRICH HERTZ),2023-093A,2026-06-04T03:17:58.373952,1.00272490,.00009749,0.0448,123.4904,332.0680,207.2004,0,U,57213,999,1078,0,.14E-6,0
SYRACUSE 4B,2023-093B,2026-06-04T04:58:30.225792,1.00271802,.00003409,0.0175,355.1956,137.9621,187.6872,0,U,57214,999,683,0,0,0
JUPITER 3 (ECHOSTAR 24),2023-108A,2026-06-03T13:32:51.874656,1.00270212,.00012346,0.0193,329.9698,102.0529,287.9908,0,U,57479,999,1050,0,0,0
GALAXY 37 (G-37),2023-112A,2026-06-04T05:49:38.673408,1.00273075,.00022573,0.0153,312.9979,123.4457,136.6679,0,U,57493,999,1041,0,.6E-6,0
LUDI TANCE-4 01A,2023-120A,2026-06-02T17:43:53.939136,1.00272712,.00007623,15.1104,194.3254,72.9345,339.6342,0,U,57624,999,1040,0,-.162E-5,0
TJS-10,2023-169A,2026-06-03T17:28:14.581056,1.00269817,.0003775,2.5097,80.6492,96.3835,69.6584,0,U,58204,999,940,0,-.238E-5,0
ZHONGXING-6E,2023-172A,2026-06-04T07:16:02.424576,1.00269255,.00026408,0.0156,335.1203,103.3489,38.8351,0,U,58253,999,953,0,0,0
YAOGAN-41,2023-197A,2026-06-04T07:18:09.722016,1.00265957,.0014055,3.1526,312.9327,188.5145,343.9327,0,U,58582,999,919,0,-.351E-5,0
OVZON-3,2024-003A,2026-06-04T03:34:49.259136,1.00273961,.00003384,0.0059,285.8696,183.0725,257.0695,0,U,58698,999,731,0,.63E-6,0
INSAT-3DS,2024-033A,2026-06-04T01:58:21.793152,1.00271078,.0001651,0.0157,244.9243,180.6260,298.6386,0,U,58990,999,4693,0,-.144E-5,0
MERAH PUTIH 2,2024-035A,2026-06-04T00:12:38.740608,1.00271487,.00015929,0.0158,278.1001,142.8205,307.6595,0,U,58995,999,845,0,-.346E-5,0
TJS-11,2024-037A,2026-05-27T19:49:38.827776,1.00203688,.0009231,4.2247,326.8251,68.5888,267.4904,0,U,59020,999,837,0,-.366E-5,0
HULIANWAN GAOGUI-01 (HG-01),2024-040A,2026-06-04T00:02:02.193792,1.00272355,.00032602,0.0663,329.3867,74.4115,242.7853,0,U,59069,999,719,0,.168E-5,0
EUTELSAT 36D,2024-059A,2026-06-04T01:45:15.548832,1.00274452,.00006357,0.0171,21.7789,112.2324,180.7073,0,U,59346,999,801,0,.168E-5,0
PAKSAT-MM1,2024-104A,2026-06-03T15:29:55.900032,1.00274914,.00020461,0.0154,42.0049,27.2826,93.4750,0,U,59915,999,739,0,.165E-5,0
ASTRA 1P (SES-24),2024-115A,2026-06-03T20:32:26.226240,1.00270392,.00008315,0.0653,18.4107,3.6201,197.5954,0,U,60086,999,706,0,.132E-5,0
GOES 19,2024-119A,2026-06-04T04:14:38.556096,1.00271705,.00006751,0.0458,135.8547,354.6462,110.6014,0,U,60133,999,683,0,-.236E-5,0
ZHONGXING-3A,2024-122A,2026-06-02T15:43:35.119776,1.00266908,.0001879,0.0473,109.1771,345.7961,133.5861,0,U,60179,999,716,0,-.3E-5,0
TURKSAT 6A,2024-127A,2026-06-04T01:47:00.382272,1.00270917,.00016822,0.0475,169.1431,309.1627,202.9765,0,U,60233,999,688,0,.158E-5,0
HULIANWAN GAOGUI-02 (HG-02),2024-135A,2026-06-02T17:47:51.139968,1.00269974,.00078061,0.0426,356.0531,12.4792,302.8319,0,U,60327,999,735,0,-.161E-5,0
ZHONGXING-4A,2024-151A,2026-06-04T07:16:47.354304,1.00272805,.00005934,1.3479,270.9936,183.0700,26.1187,0,U,60606,999,662,0,-.35E-5,0
HULIANWAN GAOGUI-03 (HG-03),2024-181A,2026-06-04T04:38:22.884288,1.00271588,.0001411,0.0445,359.6640,102.7192,142.7241,0,U,61503,999,669,0,-.229E-5,0
DSN-3 (KIRAMEKI-3),2024-198A,2026-06-04T07:24:09.146880,1.00271870,.00007391,0.0143,20.8388,107.1721,19.8612,0,U,61733,999,579,0,-.238E-5,0
KOREASAT 6A,2024-206A,2026-06-04T07:16:09.912864,1.00269429,.00010761,0.0156,79.4031,7.9957,30.3954,0,U,61910,999,571,0,-.35E-5,0
OPTUS-X (ADS-01),2024-212A,2026-06-04T04:02:16.626336,1.00274054,.00018173,0.0179,290.7532,182.5229,356.3207,0,U,62006,999,563,0,-.131E-5,0
GSAT-N2 (GSAT-20),2024-214A,2026-06-04T03:37:11.532288,1.00275053,.00021988,0.0214,233.6910,204.1002,297.1527,0,U,62028,999,576,0,-.9E-7,0
SXM-9,2024-234A,2026-06-04T04:14:38.556096,1.00270548,.00045716,0.0136,331.7510,344.2523,275.1320,0,U,62259,999,544,0,-.193E-5,0
